CCSDS_OMM_VERS = 2.0
CREATION_DATE  = 
ORIGINATOR     = 

OBJECT_NAME    = COSMOS 1933
OBJECT_ID      = 1988-020A
CENTER_NAME    = EARTH
REF_FRAME      = TEME
TIME_SYSTEM    = UTC
MEAN_ELEMENT_THEORY = SGP/SGP4

EPOCH          = 2026-02-07T15:53:55.411296
MEAN_MOTION    = 15.17726965
ECCENTRICITY   = .00032454
INCLINATION    = 82.5121
RA_OF_ASC_NODE = 280.6201
ARG_OF_PERICENTER = 324.7784
MEAN_ANOMALY   = 35.3235

EPHEMERIS_TYPE = 0
CLASSIFICATION_TYPE = U
NORAD_CAT_ID   = 18958
ELEMENT_SET_NO = 999
REV_AT_EPOCH   = 4567
BSTAR          = .23946411E-3
MEAN_MOTION_DOT = .4859E-4
MEAN_MOTION_DDOT = 0

CCSDS_OMM_VERS = 2.0
CREATION_DATE  = 
ORIGINATOR     = 

OBJECT_NAME    = SL-3 R/B
OBJECT_ID      = 1988-032B
CENTER_NAME    = EARTH
REF_FRAME      = TEME
TIME_SYSTEM    = UTC
MEAN_ELEMENT_THEORY = SGP/SGP4

EPOCH          = 2026-02-07T13:49:28.330176
MEAN_MOTION    = 15.19517257
ECCENTRICITY   = .00256072
INCLINATION    = 97.5154
RA_OF_ASC_NODE = 21.9537
ARG_OF_PERICENTER = 343.3420
MEAN_ANOMALY   = 16.6970

EPHEMERIS_TYPE = 0
CLASSIFICATION_TYPE = U
NORAD_CAT_ID   = 19046
ELEMENT_SET_NO = 999
REV_AT_EPOCH   = 4753
BSTAR          = .37638081E-3
MEAN_MOTION_DOT = .7995E-4
MEAN_MOTION_DDOT = 0

CCSDS_OMM_VERS = 2.0
CREATION_DATE  = 
ORIGINATOR     = 

OBJECT_NAME    = SL-16 R/B
OBJECT_ID      = 1988-039B
CENTER_NAME    = EARTH
REF_FRAME      = TEME
TIME_SYSTEM    = UTC
MEAN_ELEMENT_THEORY = SGP/SGP4

EPOCH          = 2026-02-07T14:39:38.349792
MEAN_MOTION    = 14.19611603
ECCENTRICITY   = .00209114
INCLINATION    = 71.0150
RA_OF_ASC_NODE = 132.1520
ARG_OF_PERICENTER = 20.2880
MEAN_ANOMALY   = 339.9071

EPHEMERIS_TYPE = 0
CLASSIFICATION_TYPE = U
NORAD_CAT_ID   = 19120
ELEMENT_SET_NO = 999
REV_AT_EPOCH   = 95411
BSTAR          = -.24442632E-4
MEAN_MOTION_DOT = -.1E-5
MEAN_MOTION_DDOT = 0

CCSDS_OMM_VERS = 2.0
CREATION_DATE  = 
ORIGINATOR     = 

OBJECT_NAME    = COSMOS 1953
OBJECT_ID      = 1988-050A
CENTER_NAME    = EARTH
REF_FRAME      = TEME
TIME_SYSTEM    = UTC
MEAN_ELEMENT_THEORY = SGP/SGP4

EPOCH          = 2026-02-07T12:08:21.141600
MEAN_MOTION    = 15.27911843
ECCENTRICITY   = .00105342
INCLINATION    = 82.5092
RA_OF_ASC_NODE = 188.5831
ARG_OF_PERICENTER = 227.1720
MEAN_ANOMALY   = 132.8635

EPHEMERIS_TYPE = 0
CLASSIFICATION_TYPE = U
NORAD_CAT_ID   = 19210
ELEMENT_SET_NO = 999
REV_AT_EPOCH   = 3317
BSTAR          = .52051357E-3
MEAN_MOTION_DOT = .14239E-3
MEAN_MOTION_DDOT = 0

CCSDS_OMM_VERS = 2.0
CREATION_DATE  = 
ORIGINATOR     = 

OBJECT_NAME    = SL-8 R/B
OBJECT_ID      = 1988-053B
CENTER_NAME    = EARTH
REF_FRAME      = TEME
TIME_SYSTEM    = UTC
MEAN_ELEMENT_THEORY = SGP/SGP4

EPOCH          = 2026-02-07T13:20:36.527712
MEAN_MOTION    = 14.38897611
ECCENTRICITY   = .00203506
INCLINATION    = 74.0479
RA_OF_ASC_NODE = 168.0045
ARG_OF_PERICENTER = 352.9262
MEAN_ANOMALY   = 88.5348

EPHEMERIS_TYPE = 0
CLASSIFICATION_TYPE = U
NORAD_CAT_ID   = 19257
ELEMENT_SET_NO = 999
REV_AT_EPOCH   = 97226
BSTAR          = .12162714E-3
MEAN_MOTION_DOT = .349E-5
MEAN_MOTION_DDOT = 0

CCSDS_OMM_VERS = 2.0
CREATION_DATE  = 
ORIGINATOR     = 

OBJECT_NAME    = COSMOS 1975
OBJECT_ID      = 1988-093A
CENTER_NAME    = EARTH
REF_FRAME      = TEME
TIME_SYSTEM    = UTC
MEAN_ELEMENT_THEORY = SGP/SGP4

EPOCH          = 2026-02-07T08:02:11.645664
MEAN_MOTION    = 15.27529700
ECCENTRICITY   = .00103179
INCLINATION    = 82.5221
RA_OF_ASC_NODE = 148.1343
ARG_OF_PERICENTER = 277.8550
MEAN_ANOMALY   = 82.1518

EPHEMERIS_TYPE = 0
CLASSIFICATION_TYPE = U
NORAD_CAT_ID   = 19573
ELEMENT_SET_NO = 999
REV_AT_EPOCH   = 1477
BSTAR          = .37439893E-3
MEAN_MOTION_DOT = .10128E-3
MEAN_MOTION_DDOT = 0

CCSDS_OMM_VERS = 2.0
CREATION_DATE  = 
ORIGINATOR     = 

OBJECT_NAME    = SL-14 R/B
OBJECT_ID      = 1988-093B
CENTER_NAME    = EARTH
REF_FRAME      = TEME
TIME_SYSTEM    = UTC
MEAN_ELEMENT_THEORY = SGP/SGP4

EPOCH          = 2026-02-07T13:34:32.720736
MEAN_MOTION    = 14.85622796
ECCENTRICITY   = .00218422
INCLINATION    = 82.5281
RA_OF_ASC_NODE = 70.3307
ARG_OF_PERICENTER = 134.8401
MEAN_ANOMALY   = 340.3943

EPHEMERIS_TYPE = 0
CLASSIFICATION_TYPE = U
NORAD_CAT_ID   = 19574
ELEMENT_SET_NO = 999
REV_AT_EPOCH   = 99656
BSTAR          = .60748787E-4
MEAN_MOTION_DOT = .553E-5
MEAN_MOTION_DDOT = 0

CCSDS_OMM_VERS = 2.0
CREATION_DATE  = 
ORIGINATOR     = 

OBJECT_NAME    = SL-16 R/B
OBJECT_ID      = 1988-102B
CENTER_NAME    = EARTH
REF_FRAME      = TEME
TIME_SYSTEM    = UTC
MEAN_ELEMENT_THEORY = SGP/SGP4

EPOCH          = 2026-02-07T14:27:36.526176
MEAN_MOTION    = 14.16146635
ECCENTRICITY   = .00123725
INCLINATION    = 70.9971
RA_OF_ASC_NODE = 214.7992
ARG_OF_PERICENTER = 51.2655
MEAN_ANOMALY   = 308.9572

EPHEMERIS_TYPE = 0
CLASSIFICATION_TYPE = U
NORAD_CAT_ID   = 19650
ELEMENT_SET_NO = 999
REV_AT_EPOCH   = 92263
BSTAR          = .10562788E-3
MEAN_MOTION_DOT = .161E-5
MEAN_MOTION_DDOT = 0

CCSDS_OMM_VERS = 2.0
CREATION_DATE  = 
ORIGINATOR     = 

OBJECT_NAME    = INTERCOSMOS 24
OBJECT_ID      = 1989-080A
CENTER_NAME    = EARTH
REF_FRAME      = TEME
TIME_SYSTEM    = UTC
MEAN_ELEMENT_THEORY = SGP/SGP4

EPOCH          = 2026-02-07T14:52:50.484000
MEAN_MOTION    = 12.59517154
ECCENTRICITY   = .11881225
INCLINATION    = 82.6069
RA_OF_ASC_NODE = 123.9757
ARG_OF_PERICENTER = 2.6459
MEAN_ANOMALY   = 358.0215

EPHEMERIS_TYPE = 0
CLASSIFICATION_TYPE = U
NORAD_CAT_ID   = 20261
ELEMENT_SET_NO = 999
REV_AT_EPOCH   = 66301
BSTAR          = .20024075E-3
MEAN_MOTION_DOT = .692E-5
MEAN_MOTION_DDOT = 0

CCSDS_OMM_VERS = 2.0
CREATION_DATE  = 
ORIGINATOR     = 

OBJECT_NAME    = SL-14 R/B
OBJECT_ID      = 1989-080C
CENTER_NAME    = EARTH
REF_FRAME      = TEME
TIME_SYSTEM    = UTC
MEAN_ELEMENT_THEORY = SGP/SGP4

EPOCH          = 2026-02-07T09:20:21.982848
MEAN_MOTION    = 12.50457325
ECCENTRICITY   = .12294461
INCLINATION    = 82.5943
RA_OF_ASC_NODE = 192.6379
ARG_OF_PERICENTER = 254.0416
MEAN_ANOMALY   = 92.2096

EPHEMERIS_TYPE = 0
CLASSIFICATION_TYPE = U
NORAD_CAT_ID   = 20262
ELEMENT_SET_NO = 999
REV_AT_EPOCH   = 65636
BSTAR          = .15546206E-3
MEAN_MOTION_DOT = .512E-5
MEAN_MOTION_DDOT = 0

CCSDS_OMM_VERS = 2.0
CREATION_DATE  = 
ORIGINATOR     = 

OBJECT_NAME    = DELTA 1 R/B
OBJECT_ID      = 1989-089B
CENTER_NAME    = EARTH
REF_FRAME      = TEME
TIME_SYSTEM    = UTC
MEAN_ELEMENT_THEORY = SGP/SGP4

EPOCH          = 2026-02-07T13:07:33.894912
MEAN_MOTION    = 14.50637697
ECCENTRICITY   = .00681588
INCLINATION    = 97.0726
RA_OF_ASC_NODE = 250.7755
ARG_OF_PERICENTER = 217.0378
MEAN_ANOMALY   = 142.6106

EPHEMERIS_TYPE = 0
CLASSIFICATION_TYPE = U
NORAD_CAT_ID   = 20323
ELEMENT_SET_NO = 999
REV_AT_EPOCH   = 89136
BSTAR          = .13195945E-3
MEAN_MOTION_DOT = .498E-5
MEAN_MOTION_DDOT = 0

CCSDS_OMM_VERS = 2.0
CREATION_DATE  = 
ORIGINATOR     = 

OBJECT_NAME    = ARIANE 40 R/B
OBJECT_ID      = 1990-005H
CENTER_NAME    = EARTH
REF_FRAME      = TEME
TIME_SYSTEM    = UTC
MEAN_ELEMENT_THEORY = SGP/SGP4

EPOCH          = 2026-02-07T15:42:02.024640
MEAN_MOTION    = 14.39850278
ECCENTRICITY   = .00089937
INCLINATION    = 98.3150
RA_OF_ASC_NODE = 100.2007
ARG_OF_PERICENTER = 297.9294
MEAN_ANOMALY   = 62.0984

EPHEMERIS_TYPE = 0
CLASSIFICATION_TYPE = U
NORAD_CAT_ID   = 20443
ELEMENT_SET_NO = 999
REV_AT_EPOCH   = 88848
BSTAR          = .1265584E-3
MEAN_MOTION_DOT = .355E-5
MEAN_MOTION_DDOT = 0

