COSMOS 1933             
1 18958U 88020A   26038.66244689  .00004859  00000+0  23946-3 0  9995
2 18958  82.5121 280.6201 0003245 324.7784  35.3235 15.17726965 45672
SL-3 R/B                
1 19046U 88032B   26038.57602234  .00007995  00000+0  37638-3 0  9998
2 19046  97.5154  21.9537 0025607 343.3420  16.6970 15.19517257 47530
SL-16 R/B               
1 19120U 88039B   26038.61086053 -.00000100  00000+0 -24443-4 0  9992
2 19120  71.0150 132.1520 0020911  20.2880 339.9071 14.19611603954110
COSMOS 1953             
1 19210U 88050A   26038.50580025  .00014239  00000+0  52051-3 0  9992
2 19210  82.5092 188.5831 0010534 227.1720 132.8635 15.27911843 33172
SL-8 R/B                
1 19257U 88053B   26038.55597833  .00000349  00000+0  12163-3 0  9993
2 19257  74.0479 168.0045 0020350 352.9262  88.5348 14.38897611972260
COSMOS 1975             
1 19573U 88093A   26038.33485701  .00010128  00000+0  37440-3 0  9995
2 19573  82.5221 148.1343 0010317 277.8550  82.1518 15.27529700 14779
SL-14 R/B               
1 19574U 88093B   26038.56565649  .00000553  00000+0  60749-4 0  9991
2 19574  82.5281  70.3307 0021842 134.8401 340.3943 14.85622796996563
SL-16 R/B               
1 19650U 88102B   26038.60250609  .00000161  00000+0  10563-3 0  9992
2 19650  70.9971 214.7992 0012372  51.2655 308.9572 14.16146635922632
INTERCOSMOS 24          
1 20261U 89080A   26038.62002875  .00000692  00000+0  20024-3 0  9992
2 20261  82.6069 123.9757 1188122   2.6459 358.0215 12.59517154663017
SL-14 R/B               
1 20262U 89080C   26038.38914332  .00000512  00000+0  15546-3 0  9990
2 20262  82.5943 192.6379 1229446 254.0416  92.2096 12.50457325656360
DELTA 1 R/B             
1 20323U 89089B   26038.54692008  .00000498  00000+0  13196-3 0  9990
2 20323  97.0726 250.7755 0068158 217.0378 142.6106 14.50637697891365
ARIANE 40 R/B           
1 20443U 90005H   26038.65419010  .00000355  00000+0  12656-3 0  9997
2 20443  98.3150 100.2007 0008993 297.9294  62.0984 14.39850278888484
